COSMOS 2251 DEB         
1 36632U 93036BEW 17345.47419184  .00000341  00000-0  13329-3 0  9998
2 36632  74.0065 264.7366 0040193 339.3059  20.6462 14.32882910414767
